STARLINK-1265           
1 45406U 20019AY  26068.43963775  .00005518  00000+0  19825-3 0  9993
2 45406  53.1592 130.5081 0001338  82.5689 277.5464 15.30208888329931
2025-313BE              
1 67482U 25313BE  26068.69721505  .00077178  00000+0  26504-2 0  9996
2 67482  97.3989 145.3568 0007208 335.3714  24.7181 15.29801687  7972
